ONEWEB-0087             
1 45451U 20020AD  25352.20791331 -.00000435  00000+0 -12636-2 0  9999
2 45451  87.8871  57.0546 0002044  99.8328 260.3031 13.11415488278868
ONEWEB-0082             
1 45452U 20020AE  25352.20465336 -.00000303  00000+0 -89057-3 0  9999
2 45452  87.8870  57.0803 0001986  99.9813 260.1539 13.11413930278959
ONEWEB-0050             
1 45453U 20020AF  25352.28317972  .00002853  00000+0  29693-3 0  9990
2 45453  88.9240 257.8866 0000408 280.8706  79.2476 14.89586838313449
ONEWEB-0034             
1 45454U 20020AG  25352.22585391 -.00000250  00000+0 -74137-3 0  9991
2 45454  87.8860  57.0896 0001784 101.6758 258.4571 13.11418117278876
ONEWEB-0060             
1 45455U 20020AH  25352.19702531 -.00000056  00000+0 -19469-3 0  9996
2 45455  87.8849  57.1122 0002756  92.2124 267.9320 13.11416168278825
ONEWEB-0086             
1 45456U 20020AJ  25352.25214724  .00000638  00000+0  17643-2 0  9991
2 45456  87.8860  57.0811 0002124  82.3465 277.7904 13.11417857278890
ONEWEB-0088             
1 45457U 20020AK  25352.23009935 -.00000178  00000+0 -53688-3 0  9997
2 45457  87.8873  57.0417 0001894 110.6641 249.4690 13.11414317278820
ONEWEB-0102             
1 47258U 20100A   25352.14722998 -.00000052  00000+0 -18054-3 0  9997
2 47258  87.8929  26.6465 0001668  93.4535 266.6785 13.12552280240982
ONEWEB-0109             
1 47259U 20100B   25352.15555658  .00000224  00000+0  58711-3 0  9999
2 47259  87.8935  26.6141 0001671  94.0132 266.1187 13.12504608240819
ONEWEB-0110             
1 47260U 20100C   25352.18226710  .00000238  00000+0  62689-3 0  9992
2 47260  87.8937  26.5930 0001967  88.9922 271.1432 13.12349716240989
ONEWEB-0111             
1 47261U 20100D   25352.13662375 -.00000348  00000+0 -10048-2 0  9994
2 47261  87.8936  26.6201 0001754  94.9334 265.1994 13.12393721240812
ONEWEB-0114             
1 47262U 20100E   25352.16725379  .00000513  00000+0  13907-2 0  9991
2 47262  87.8937  26.6088 0001423  97.9766 262.1524 13.12437788240775
ONEWEB-0117             
1 47263U 20100F   25352.15889450  .00000320  00000+0  85429-3 0  9997
2 47263  87.8935  26.6072 0001803  95.7575 264.3759 13.12484788240780
ONEWEB-0118             
1 47264U 20100G   25352.11604938 -.00000189  00000+0 -56060-3 0  9994
2 47264  87.8936  26.6159 0001551 106.5307 253.5992 13.12293443240978
ONEWEB-0119             
1 47265U 20100H   25352.14222551 -.00000182  00000+0 -54143-3 0  9998
2 47265  87.8927  26.6442 0001736  94.6784 265.4543 13.12581321240952
ONEWEB-0120             
1 47266U 20100J   25352.16570763  .00000398  00000+0  10698-2 0  9995
2 47266  87.8926  26.6406 0001665  97.0709 263.0609 13.12449705240986
