[{"OBJECT_NAME":"ONEWEB-0087","OBJECT_ID":"2020-020AD","EPOCH":"2025-12-18T04:59:23.709984","MEAN_MOTION":13.11415488,"ECCENTRICITY":0.00020449,"INCLINATION":87.8871,"RA_OF_ASC_NODE":57.0546,"ARG_OF_PERICENTER":99.8328,"MEAN_ANOMALY":260.3031,"EPHEMERIS_TYPE":0,"CLASSIFICATION_TYPE":"U","NORAD_CAT_ID":45451,"ELEMENT_SET_NO":999,"REV_AT_EPOCH":27886,"BSTAR":-0.0012636206,"MEAN_MOTION_DOT":-4.35e-6,"MEAN_MOTION_DDOT":0},{"OBJECT_NAME":"ONEWEB-0082","OBJECT_ID":"2020-020AE","EPOCH":"2025-12-18T04:54:42.050304","MEAN_MOTION":13.1141393,"ECCENTRICITY":0.00019869,"INCLINATION":87.887,"RA_OF_ASC_NODE":57.0803,"ARG_OF_PERICENTER":99.9813,"MEAN_ANOMALY":260.1539,"EPHEMERIS_TYPE":0,"CLASSIFICATION_TYPE":"U","NORAD_CAT_ID":45452,"ELEMENT_SET_NO":999,"REV_AT_EPOCH":27895,"BSTAR":-0.00089057336,"MEAN_MOTION_DOT":-3.03e-6,"MEAN_MOTION_DDOT":0},{"OBJECT_NAME":"ONEWEB-0050","OBJECT_ID":"2020-020AF","EPOCH":"2025-12-18T06:47:46.727808","MEAN_MOTION":14.89586838,"ECCENTRICITY":4.08e-5,"INCLINATION":88.924,"RA_OF_ASC_NODE":257.8866,"ARG_OF_PERICENTER":280.8706,"MEAN_ANOMALY":79.2476,"EPHEMERIS_TYPE":0,"CLASSIFICATION_TYPE":"U","NORAD_CAT_ID":45453,"ELEMENT_SET_NO":999,"REV_AT_EPOCH":31344,"BSTAR":0.00029692595,"MEAN_MOTION_DOT":2.853e-5,"MEAN_MOTION_DDOT":0},{"OBJECT_NAME":"ONEWEB-0034","OBJECT_ID":"2020-020AG","EPOCH":"2025-12-18T05:25:13.777824","MEAN_MOTION":13.11418117,"ECCENTRICITY":0.0001784,"INCLINATION":87.886,"RA_OF_ASC_NODE":57.0896,"ARG_OF_PERICENTER":101.6758,"MEAN_ANOMALY":258.4571,"EPHEMERIS_TYPE":0,"CLASSIFICATION_TYPE":"U","NORAD_CAT_ID":45454,"ELEMENT_SET_NO":999,"REV_AT_EPOCH":27887,"BSTAR":-0.00074136831,"MEAN_MOTION_DOT":-2.5e-6,"MEAN_MOTION_DDOT":0},{"OBJECT_NAME":"ONEWEB-0060","OBJECT_ID":"2020-020AH","EPOCH":"2025-12-18T04:43:42.986784","MEAN_MOTION":13.11416168,"ECCENTRICITY":0.0002756,"INCLINATION":87.8849,"RA_OF_ASC_NODE":57.1122,"ARG_OF_PERICENTER":92.2124,"MEAN_ANOMALY":267.932,"EPHEMERIS_TYPE":0,"CLASSIFICATION_TYPE":"U","NORAD_CAT_ID":45455,"ELEMENT_SET_NO":999,"REV_AT_EPOCH":27882,"BSTAR":-0.00019469243,"MEAN_MOTION_DOT":-5.6e-7,"MEAN_MOTION_DDOT":0},{"OBJECT_NAME":"ONEWEB-0086","OBJECT_ID":"2020-020AJ","EPOCH":"2025-12-18T06:03:05.521536","MEAN_MOTION":13.11417857,"ECCENTRICITY":0.00021242,"INCLINATION":87.886,"RA_OF_ASC_NODE":57.0811,"ARG_OF_PERICENTER":82.3465,"MEAN_ANOMALY":277.7904,"EPHEMERIS_TYPE":0,"CLASSIFICATION_TYPE":"U","NORAD_CAT_ID":45456,"ELEMENT_SET_NO":999,"REV_AT_EPOCH":27889,"BSTAR":0.0017642536,"MEAN_MOTION_DOT":6.38e-6,"MEAN_MOTION_DDOT":0},{"OBJECT_NAME":"ONEWEB-0088","OBJECT_ID":"2020-020AK","EPOCH":"2025-12-18T05:31:20.583840","MEAN_MOTION":13.11414317,"ECCENTRICITY":0.00018949,"INCLINATION":87.8873,"RA_OF_ASC_NODE":57.0417,"ARG_OF_PERICENTER":110.6641,"MEAN_ANOMALY":249.469,"EPHEMERIS_TYPE":0,"CLASSIFICATION_TYPE":"U","NORAD_CAT_ID":45457,"ELEMENT_SET_NO":999,"REV_AT_EPOCH":27882,"BSTAR":-0.0005368802,"MEAN_MOTION_DOT":-1.78e-6,"MEAN_MOTION_DDOT":0},{"OBJECT_NAME":"ONEWEB-0102","OBJECT_ID":"2020-100A","EPOCH":"2025-12-18T03:32:00.670272","MEAN_MOTION":13.1255228,"ECCENTRICITY":0.00016684,"INCLINATION":87.8929,"RA_OF_ASC_NODE":26.6465,"ARG_OF_PERICENTER":93.4535,"MEAN_ANOMALY":266.6785,"EPHEMERIS_TYPE":0,"CLASSIFICATION_TYPE":"U","NORAD_CAT_ID":47258,"ELEMENT_SET_NO":999,"REV_AT_EPOCH":24098,"BSTAR":-0.00018053788,"MEAN_MOTION_DOT":-5.2e-7,"MEAN_MOTION_DDOT":0},{"OBJECT_NAME":"ONEWEB-0109","OBJECT_ID":"2020-100B","EPOCH":"2025-12-18T03:44:00.088512","MEAN_MOTION":13.12504608,"ECCENTRICITY":0.00016719,"INCLINATION":87.8935,"RA_OF_ASC_NODE":26.6141,"ARG_OF_PERICENTER":94.0132,"MEAN_ANOMALY":266.1187,"EPHEMERIS_TYPE":0,"CLASSIFICATION_TYPE":"U","NORAD_CAT_ID":47259,"ELEMENT_SET_NO":999,"REV_AT_EPOCH":24081,"BSTAR":0.00058711089,"MEAN_MOTION_DOT":2.24e-6,"MEAN_MOTION_DDOT":0},{"OBJECT_NAME":"ONEWEB-0110","OBJECT_ID":"2020-100C","EPOCH":"2025-12-18T04:22:27.877440","MEAN_MOTION":13.12349716,"ECCENTRICITY":0.00019671,"INCLINATION":87.8937,"RA_OF_ASC_NODE":26.593,"ARG_OF_PERICENTER":88.9922,"MEAN_ANOMALY":271.1432,"EPHEMERIS_TYPE":0,"CLASSIFICATION_TYPE":"U","NORAD_CAT_ID":47260,"ELEMENT_SET_NO":999,"REV_AT_EPOCH":24098,"BSTAR":0.00062689011,"MEAN_MOTION_DOT":2.38e-6,"MEAN_MOTION_DDOT":0},{"OBJECT_NAME":"ONEWEB-0111","OBJECT_ID":"2020-100D","EPOCH":"2025-12-18T03:16:44.292000","MEAN_MOTION":13.12393721,"ECCENTRICITY":0.00017541,"INCLINATION":87.8936,"RA_OF_ASC_NODE":26.6201,"ARG_OF_PERICENTER":94.9334,"MEAN_ANOMALY":265.1994,"EPHEMERIS_TYPE":0,"CLASSIFICATION_TYPE":"U","NORAD_CAT_ID":47261,"ELEMENT_SET_NO":999,"REV_AT_EPOCH":24081,"BSTAR":-0.00100476,"MEAN_MOTION_DOT":-3.48e-6,"MEAN_MOTION_DDOT":0},{"OBJECT_NAME":"ONEWEB-0114","OBJECT_ID":"2020-100E","EPOCH":"2025-12-18T04:00:50.727456","MEAN_MOTION":13.12437788,"ECCENTRICITY":0.00014233,"INCLINATION":87.8937,"RA_OF_ASC_NODE":26.6088,"ARG_OF_PERICENTER":97.9766,"MEAN_ANOMALY":262.1524,"EPHEMERIS_TYPE":0,"CLASSIFICATION_TYPE":"U","NORAD_CAT_ID":47262,"ELEMENT_SET_NO":999,"REV_AT_EPOCH":24077,"BSTAR":0.0013906618,"MEAN_MOTION_DOT":5.13e-6,"MEAN_MOTION_DDOT":0},{"OBJECT_NAME":"ONEWEB-0117","OBJECT_ID":"2020-100F","EPOCH":"2025-12-18T03:48:48.484800","MEAN_MOTION":13.12484788,"ECCENTRICITY":0.00018033,"INCLINATION":87.8935,"RA_OF_ASC_NODE":26.6072,"ARG_OF_PERICENTER":95.7575,"MEAN_ANOMALY":264.3759,"EPHEMERIS_TYPE":0,"CLASSIFICATION_TYPE":"U","NORAD_CAT_ID":47263,"ELEMENT_SET_NO":999,"REV_AT_EPOCH":24078,"BSTAR":0.00085429174,"MEAN_MOTION_DOT":3.2e-6,"MEAN_MOTION_DDOT":0},{"OBJECT_NAME":"ONEWEB-0118","OBJECT_ID":"2020-100G","EPOCH":"2025-12-18T02:47:06.666432","MEAN_MOTION":13.12293443,"ECCENTRICITY":0.00015516,"INCLINATION":87.8936,"RA_OF_ASC_NODE":26.6159,"ARG_OF_PERICENTER":106.5307,"MEAN_ANOMALY":253.5992,"EPHEMERIS_TYPE":0,"CLASSIFICATION_TYPE":"U","NORAD_CAT_ID":47264,"ELEMENT_SET_NO":999,"REV_AT_EPOCH":24097,"BSTAR":-0.00056059688,"MEAN_MOTION_DOT":-1.89e-6,"MEAN_MOTION_DDOT":0},{"OBJECT_NAME":"ONEWEB-0119","OBJECT_ID":"2020-100H","EPOCH":"2025-12-18T03:24:48.284064","MEAN_MOTION":13.12581321,"ECCENTRICITY":0.00017367,"INCLINATION":87.8927,"RA_OF_ASC_NODE":26.6442,"ARG_OF_PERICENTER":94.6784,"MEAN_ANOMALY":265.4543,"EPHEMERIS_TYPE":0,"CLASSIFICATION_TYPE":"U","NORAD_CAT_ID":47265,"ELEMENT_SET_NO":999,"REV_AT_EPOCH":24095,"BSTAR":-0.00054142955,"MEAN_MOTION_DOT":-1.82e-6,"MEAN_MOTION_DDOT":0},{"OBJECT_NAME":"ONEWEB-0120","OBJECT_ID":"2020-100J","EPOCH":"2025-12-18T03:58:37.139232","MEAN_MOTION":13.12449705,"ECCENTRICITY":0.00016656,"INCLINATION":87.8926,"RA_OF_ASC_NODE":26.6406,"ARG_OF_PERICENTER":97.0709,"MEAN_ANOMALY":263.0609,"EPHEMERIS_TYPE":0,"CLASSIFICATION_TYPE":"U","NORAD_CAT_ID":47266,"ELEMENT_SET_NO":999,"REV_AT_EPOCH":24098,"BSTAR":0.0010697783,"MEAN_MOTION_DOT":3.98e-6,"MEAN_MOTION_DDOT":0}]
